OBJECT_NAME,OBJECT_ID,EPOCH,MEAN_MOTION,ECCENTRICITY,INCLINATION,RA_OF_ASC_NODE,ARG_OF_PERICENTER,MEAN_ANOMALY,EPHEMERIS_TYPE,CLASSIFICATION_TYPE,NORAD_CAT_ID,ELEMENT_SET_NO,REV_AT_EPOCH,BSTAR,MEAN_MOTION_DOT,MEAN_MOTION_DDOT
SIRION PATHFINDER-2,2018-099B,2026-06-28T16:15:17.704800,15.14646139,.00071501,97.4248,228.4616,256.0298,104.0139,0,U,43759,999,41436,.24629945E-3,.449E-4,0
CORVUS BC4,2018-099K,2026-06-28T15:11:58.609536,15.12582601,.0007066,97.4060,222.2784,331.9729,28.1121,0,U,43767,999,41413,.20424297E-3,.3502E-4,0
M2 PATHFINDER,2020-037E,2026-06-29T11:34:39.441216,15.04726839,.0012665,97.8138,11.8516,110.3788,249.8799,0,U,45727,999,32734,.2237E-3,.3092E-4,0
NETSAT-4,2020-068U,2026-06-29T12:04:04.658880,15.44265586,.0003235,97.8596,189.7360,269.3858,90.7019,0,U,46504,999,31767,.35665E-3,.1632E-3,0
NETSAT-3,2020-068V,2026-06-29T12:26:37.782240,15.43096247,.0002904,97.8645,187.9540,299.0594,61.0362,0,U,46505,999,31758,.37438E-3,.16473E-3,0
NETSAT-1,2020-068W,2026-06-29T12:33:10.039104,15.34916721,.0003471,97.8739,182.1434,349.7067,10.4103,0,U,46506,999,31719,.3111E-3,.10451E-3,0
NETSAT-2,2020-068X,2026-06-29T12:36:37.965024,15.46520004,.0001596,97.8607,189.7008,332.8611,27.2553,0,U,46507,999,31764,.41231E-3,.20402E-3,0
GREENCUBE (IO-117),2022-080E,2026-06-28T16:50:00.384576,6.42583249,.00089876,70.1440,294.2410,287.1341,72.8335,0,U,53109,999,9280,0,-.3E-7,0
SITRO-AIS 5 (KATYS),2023-091L,2026-06-29T11:59:29.411808,15.29732720,.0012222,97.5060,244.5175,65.0232,295.2276,0,U,57176,999,16622,.38465E-3,.1103E-3,0
SITRO-AIS 6 (CHIRKIN),2023-091AC,2026-06-29T12:10:19.024896,15.26164520,.0012654,97.5067,243.5784,68.2134,292.0450,0,U,57192,999,16616,.36932E-3,.9493E-4,0
SITRO-AIS 8 (ANOKHIN),2023-091AD,2026-06-29T11:52:45.083136,15.32461491,.0011095,97.5057,246.1519,61.3352,298.9003,0,U,57193,999,16633,.4216E-3,.13167E-3,0
SITRO-AIS 7 (FARTUSHNIY),2023-091AE,2026-06-29T12:18:30.322080,15.25847541,.0012547,97.5063,243.4027,69.3000,290.9582,0,U,57194,999,16615,.37779E-3,.962E-4,0
SITRO-AIS 10 (BURDAEV),2023-091AK,2026-06-29T11:22:56.769024,15.39063347,.0006451,97.5082,251.3130,41.6076,318.5659,0,U,57199,999,16665,.49273E-3,.19017E-3,0
SITRO-AIS 9 (SHCHUKIN),2023-091AM,2026-06-29T12:06:39.851424,15.38565677,.0006716,97.5080,251.0644,41.4729,318.7024,0,U,57201,999,16664,.47969E-3,.18212E-3,0
SITRO-AIS 12 (SMIRENNIY),2023-091AQ,2026-06-29T11:49:46.915104,15.38857307,.0006226,97.5094,251.5272,36.1179,324.0485,0,U,57204,999,16666,.47281E-3,.18119E-3,0
SITRO-AIS 11 (SHEFFER),2023-091AU,2026-06-29T12:04:10.051968,15.39290697,.0006089,97.5091,251.7919,35.8478,324.3174,0,U,57208,999,16668,.48308E-3,.1878E-3,0
SITRO-AIS 25,2024-039R,2026-06-29T12:04:00.450336,14.93568938,.0142471,95.3904,243.5557,285.1518,73.3987,0,U,59066,999,12656,.19614E-3,.2488E-4,0
SITRO-AIS 26,2024-039S,2026-06-29T12:08:24.818784,14.93363232,.0142802,95.3904,243.4528,285.7443,72.8071,0,U,59067,999,12655,.19693E-3,.2486E-4,0
SITRO-AIS 27,2024-039T,2026-06-29T12:57:02.733408,14.93788162,.0141757,95.3912,243.7537,284.2155,74.3360,0,U,59068,999,12658,.19394E-3,.247E-4,0
SITRO-AIS 28,2024-039U,2026-06-29T12:24:10.118592,14.93819289,.0141673,95.3909,243.7857,284.1086,74.4430,0,U,59071,999,12658,.22188E-3,.2833E-4,0
GRBBETA,2024-128C,2026-06-29T10:21:24.706944,15.06710402,.0039057,61.9878,173.3040,137.2474,223.1669,0,U,60237,999,10811,.21587E-3,.3058E-4,0
OOV-CUBE (TUBSAT-30),2024-128F,2026-06-29T11:57:15.871968,15.02816667,.0043101,61.9924,182.6432,136.5049,223.9455,0,U,60240,999,10796,.14607E-3,.1788E-4,0
ROBUSTA-3A (MEDITERRANEE),2024-128J,2026-06-29T12:05:39.843168,15.11790512,.0039912,61.9843,164.6835,130.5973,229.8606,0,U,60243,999,10828,.30624E-3,.5127E-4,0
LASARSAT,2024-247Q,2026-06-29T12:08:08.580768,15.47074442,.0006835,44.9719,192.9569,48.4936,311.6539,0,U,62391,999,8522,.57364E-3,.29469E-3,0
CROCUBE,2024-247T,2026-06-28T07:51:18.669024,15.48984330,.00068544,44.9690,196.7325,45.5250,314.6200,0,U,62394,999,8507,.62422395E-3,.34355E-3,0
FORESAIL-1 PRIME,2025-276DS,2026-06-29T10:46:28.713216,15.18808247,.0003807,97.4202,253.4956,78.5613,281.6048,0,U,66778,999,3226,.20289E-3,.4155E-4,0
KNACKSAT-2,1998-067XZ,2026-06-29T12:25:48.796032,15.61047000,.0008489,51.6266,232.4049,270.2980,89.7040,0,U,67683,999,2220,.45711E-3,.38948E-3,0
