SIRION PATHFINDER-2     
1 43759U 18099B   26179.67728825  .00004490  00000+0  24630-3 0  9999
2 43759  97.4248 228.4616 0007150 256.0298 104.0139 15.14646139414364
CORVUS BC4              
1 43767U 18099K   26179.63331724  .00003502  00000+0  20424-3 0  9992
2 43767  97.4060 222.2784 0007066 331.9729  28.1121 15.12582601414134
M2 PATHFINDER           
1 45727U 20037E   26180.48240094  .00003092  00000+0  22370-3 0  9995
2 45727  97.8138  11.8516 0012665 110.3788 249.8799 15.04726839327345
NETSAT-4                
1 46504U 20068U   26180.50283170  .00016320  00000+0  35665-3 0  9997
2 46504  97.8596 189.7360 0003235 269.3858  90.7019 15.44265586317679
NETSAT-3                
1 46505U 20068V   26180.51849285  .00016473  00000+0  37438-3 0  9993
2 46505  97.8645 187.9540 0002904 299.0594  61.0362 15.43096247317581
NETSAT-1                
1 46506U 20068W   26180.52303286  .00010451  00000+0  31110-3 0  9992
2 46506  97.8739 182.1434 0003471 349.7067  10.4103 15.34916721317199
NETSAT-2                
1 46507U 20068X   26180.52543941  .00020402  00000+0  41231-3 0  9999
2 46507  97.8607 189.7008 0001596 332.8611  27.2553 15.46520004317641
GREENCUBE (IO-117)      
1 53109U 22080E   26179.70139334 -.00000003  00000+0  00000+0 0  9997
2 53109  70.1440 294.2410 0008987 287.1341  72.8335  6.42583249 92806
SITRO-AIS 5 (KATYS)     
1 57176U 23091L   26180.49964597  .00011030  00000+0  38465-3 0  9994
2 57176  97.5060 244.5175 0012222  65.0232 295.2276 15.29732720166228
SITRO-AIS 6 (CHIRKIN)   
1 57192U 23091AC  26180.50716464  .00009493  00000+0  36932-3 0  9999
2 57192  97.5067 243.5784 0012654  68.2134 292.0450 15.26164520166169
SITRO-AIS 8 (ANOKHIN)   
1 57193U 23091AD  26180.49496624  .00013167  00000+0  42160-3 0  9994
2 57193  97.5057 246.1519 0011095  61.3352 298.9003 15.32461491166330
SITRO-AIS 7 (FARTUSHNIY)
1 57194U 23091AE  26180.51285095  .00009620  00000+0  37779-3 0  9995
2 57194  97.5063 243.4027 0012547  69.3000 290.9582 15.25847541166153
SITRO-AIS 10 (BURDAEV)  
1 57199U 23091AK  26180.47426816  .00019017  00000+0  49273-3 0  9996
2 57199  97.5082 251.3130 0006451  41.6076 318.5659 15.39063347166651
SITRO-AIS 9 (SHCHUKIN)  
1 57201U 23091AM  26180.50462791  .00018212  00000+0  47969-3 0  9992
2 57201  97.5080 251.0644 0006716  41.4729 318.7024 15.38565677166646
SITRO-AIS 12 (SMIRENNIY)
1 57204U 23091AQ  26180.49290411  .00018119  00000+0  47281-3 0  9994
2 57204  97.5094 251.5272 0006226  36.1179 324.0485 15.38857307166669
SITRO-AIS 11 (SHEFFER)  
1 57208U 23091AU  26180.50289412  .00018780  00000+0  48308-3 0  9994
2 57208  97.5091 251.7919 0006089  35.8478 324.3174 15.39290697166689
SITRO-AIS 25            
1 59066U 24039R   26180.50278299  .00002488  00000+0  19614-3 0  9998
2 59066  95.3904 243.5557 0142471 285.1518  73.3987 14.93568938126561
SITRO-AIS 26            
1 59067U 24039S   26180.50584281  .00002486  00000+0  19693-3 0  9995
2 59067  95.3904 243.4528 0142802 285.7443  72.8071 14.93363232126557
SITRO-AIS 27            
1 59068U 24039T   26180.53961497  .00002470  00000+0  19394-3 0  9998
2 59068  95.3912 243.7537 0141757 284.2155  74.3360 14.93788162126586
SITRO-AIS 28            
1 59071U 24039U   26180.51678378  .00002833  00000+0  22188-3 0  9991
2 59071  95.3909 243.7857 0141673 284.1086  74.4430 14.93819289126584
GRBBETA                 
1 60237U 24128C   26180.43153596  .00003058  00000+0  21587-3 0  9999
2 60237  61.9878 173.3040 0039057 137.2474 223.1669 15.06710402108115
OOV-CUBE (TUBSAT-30)    
1 60240U 24128F   26180.49810037  .00001788  00000+0  14607-3 0  9992
2 60240  61.9924 182.6432 0043101 136.5049 223.9455 15.02816667107963
ROBUSTA-3A (MEDITERRAN*)
1 60243U 24128J   26180.50393337  .00005127  00000+0  30624-3 0  9994
2 60243  61.9843 164.6835 0039912 130.5973 229.8606 15.11790512108287
LASARSAT                
1 62391U 24247Q   26180.50565487  .00029469  00000+0  57364-3 0  9994
2 62391  44.9719 192.9569 0006835  48.4936 311.6539 15.47074442 85227
CROCUBE                 
1 62394U 24247T   26179.32729941  .00034355  00000+0  62422-3 0  9993
2 62394  44.9690 196.7325 0006854  45.5250 314.6200 15.48984330 85076
FORESAIL-1 PRIME        
1 66778U 25276DS  26180.44894344  .00004155  00000+0  20289-3 0  9991
2 66778  97.4202 253.4956 0003807  78.5613 281.6048 15.18808247 32268
KNACKSAT-2              
1 67683U 98067XZ  26180.51792588  .00038948  00000+0  45711-3 0  9994
2 67683  51.6266 232.4049 0008489 270.2980  89.7040 15.61047000 22207
